[{"pk": 7, "model": "variety_trials_data.location", "fields": {"latitude": null, "name": "Nelson County", "longitude": null, "zipcode": 26066}}, {"pk": 10, "model": "variety_trials_data.location", "fields": {"latitude": null, "name": "Dickey County", "longitude": null, "zipcode": 26141}}, {"pk": 14, "model": "variety_trials_data.location", "fields": {"latitude": null, "name": "Barnes County", "longitude": null, "zipcode": 26113}}, {"pk": 29, "model": "variety_trials_data.location", "fields": {"latitude": null, "name": "Crookston", "longitude": null, "zipcode": 25431}}, {"pk": 32, "model": "variety_trials_data.location", "fields": {"latitude": null, "name": "Fergus Falls", "longitude": null, "zipcode": 25318}}, {"pk": 33, "model": "variety_trials_data.location", "fields": {"latitude": null, "name": "Oklee", "longitude": null, "zipcode": 25452}}, {"pk": 36, "model": "variety_trials_data.location", "fields": {"latitude": null, "name": "Morris", "longitude": null, "zipcode": 25135}}, {"pk": 37, "model": "variety_trials_data.location", "fields": {"latitude": null, "name": "Perley", "longitude": null, "zipcode": 25350}}, {"pk": 38, "model": "variety_trials_data.location", "fields": {"latitude": null, "name": "Foxhome", "longitude": null, "zipcode": 25323}}, {"pk": 44, "model": "variety_trials_data.location", "fields": {"latitude": null, "name": "Forman", "longitude": null, "zipcode": 25921}}, {"pk": 45, "model": "variety_trials_data.location", "fields": {"latitude": null, "name": "Prosper", "longitude": null, "zipcode": 25929}}, {"pk": 46, "model": "variety_trials_data.location", "fields": {"latitude": null, "name": "Casselton", "longitude": null, "zipcode": 25909}}]