[{"pk": 2, "model": "variety_trials_data.location", "fields": {"latitude": null, "name": "Minot", "longitude": null, "zipcode": 26244}}, {"pk": 3, "model": "variety_trials_data.location", "fields": {"latitude": null, "name": "McLean County", "longitude": null, "zipcode": 26181}}, {"pk": 4, "model": "variety_trials_data.location", "fields": {"latitude": null, "name": "Sheridan County", "longitude": null, "zipcode": 26136}}, {"pk": 5, "model": "variety_trials_data.location", "fields": {"latitude": null, "name": "Carrington", "longitude": null, "zipcode": 26106}}, {"pk": 11, "model": "variety_trials_data.location", "fields": {"latitude": null, "name": "Tri-County", "longitude": null, "zipcode": 26159}}, {"pk": 12, "model": "variety_trials_data.location", "fields": {"latitude": null, "name": "Mountrail County", "longitude": null, "zipcode": 26284}}, {"pk": 16, "model": "variety_trials_data.location", "fields": {"latitude": null, "name": "Kidder County", "longitude": null, "zipcode": 26145}}, {"pk": 20, "model": "variety_trials_data.location", "fields": {"latitude": null, "name": "Multi County", "longitude": null, "zipcode": 25899}}, {"pk": 21, "model": "variety_trials_data.location", "fields": {"latitude": null, "name": "Pierce County", "longitude": null, "zipcode": 26084}}, {"pk": 24, "model": "variety_trials_data.location", "fields": {"latitude": null, "name": "Dickinson", "longitude": null, "zipcode": 26211}}, {"pk": 39, "model": "variety_trials_data.location", "fields": {"latitude": null, "name": "Wishek", "longitude": null, "zipcode": 26159}}, {"pk": 41, "model": "variety_trials_data.location", "fields": {"latitude": null, "name": "Drake", "longitude": null, "zipcode": 26266}}, {"pk": 42, "model": "variety_trials_data.location", "fields": {"latitude": null, "name": "Hettinger", "longitude": null, "zipcode": 26226}}]